AMGU-1 (AMURSAT)        
1 44394U 19038J   22059.87445217  .00005034  00000+0  27003-3 0  9997
2 44394  97.6210  29.0337 0021598 144.0863 216.1826 15.15222658146583
DOT-1                   
1 44399U 19038P   22059.82399926  .00003236  00000+0  18204-3 0  9997
2 44399  97.6266  28.1144 0024593 149.7580 210.5076 15.13745379146506
SOKRAT                  
1 44404U 19038U   22059.85506821  .00005525  00000+0  29726-3 0  9995
2 44404  97.6223  28.7135 0021886 145.7488 214.5160 15.15068207146561
LUCKY-7                 
1 44406U 19038W   22059.85944845  .00003940  00000+0  21863-3 0  9992
2 44406  97.6256  28.4575 0024634 142.1758 218.1210 15.14098515146525
D-STAR ONE (EXOCONNECT) 
1 44410U 19038AA  22059.90173911  .00007632  00000+0  39178-3 0  9991
2 44410  97.6182  29.3429 0021408 141.3633 218.9137 15.16605983146627
NARSSCUBE-2             
1 44415U 19022E   22059.83544357  .00004984  00000+0  16651-3 0  9995
2 44415  51.6402 282.7430 0010733  28.4571 331.6995 15.32764867143446
DUCHIFAT-3              
1 44854U 19089C   22059.91636359  .00002324  00000+0  18858-3 0  9995
2 44854  36.9674  23.3560 0007401  50.4917 309.6484 15.00203048121628
OPS-SAT                 
1 44878U 19092F   22059.76800474  .00004972  00000+0  24694-3 0  9995
2 44878  97.4773 244.8145 0013298   4.3602 355.7745 15.18061093121695
FLORIPASAT-1            
1 44885U 19093G   22059.91022488  .00001034  00000+0  13462-3 0  9999
2 44885  97.9043 141.6830 0014632 180.9807 179.1359 14.82677231118764
HUSKYSAT-1 (HO-107)     
1 45119U 19071J   22059.88343590  .00013743  00000+0  35267-3 0  9999
2 45119  51.6381 230.8287 0010209 140.3845 219.7887 15.39571075116613
G-SAT                   
1 45597U 98067RK  22059.55590376  .00114014  00000+0  63077-3 0  9994
2 45597  51.6350 112.0640 0002888  20.6503 339.4614 15.78741965104703
QUETZAL-1               
1 45598U 98067RL  22058.26358165  .11674468  12483-4  61790-3 0  9999
2 45598  51.6159 103.9349 0001315 314.4869  45.6051 16.42508540104623
BY70-2                  
1 45857U 20042B   22059.90826924  .00003487  00000+0  48691-3 0  9997
2 45857  97.9638 137.8981 0012221 108.8445 251.4081 14.78245730 89412
SALSAT                  
1 46495U 20068K   22059.79993166  .00001126  00000+0  86061-4 0  9996
2 46495  97.7187   1.1877 0015381 287.4784  72.4760 15.03927736 77857
NETSAT-4                
1 46504U 20068U   22059.79611545  .00001152  00000+0  90879-4 0  9996
2 46504  97.7157 359.9289 0013066 343.1888  16.8905 15.02681578 77728
NETSAT-3                
1 46505U 20068V   22059.80867060  .00001524  00000+0  11875-3 0  9995
2 46505  97.7165 359.8797 0011540 355.4065   4.7046 15.02664023 77738
NETSAT-1                
1 46506U 20068W   22059.82169974  .00001827  00000+0  14168-3 0  9991
2 46506  97.7143 359.8318 0009199   5.7273 354.4054 15.02625155 77734
NETSAT-2                
1 46507U 20068X   22059.82918518  .00001976  00000+0  15295-3 0  9995
2 46507  97.7138 359.8332 0008534   9.3474 350.7908 15.02606508 77682
BY70-3                  
1 46839U 20079N   22059.89481927  .00011201  00000+0  30869-3 0  9997
2 46839  97.2119 133.7436 0006615  17.6742  70.7590 15.37268215 73540
SPOC                    
1 46921U 98067RR  22059.60729590  .00049605  00000+0  46956-3 0  9994
2 46921  51.6372 130.5206 0003512 356.8426   3.2547 15.66448291 74817
BOBCAT-1                
1 46922U 98067RS  22059.42856245  .00146240  00000+0  76701-3 0  9997
2 46922  51.6356 121.0819 0006377  11.6739 348.4409 15.79788327 74889
NEUTRON-1               
1 46923U 98067RT  22059.45164961  .00048380  00000+0  46073-3 0  9993
2 46923  51.6380 131.7378 0003612   0.6896 359.4105 15.66308732 74818
DESCENT                 
1 46927U 98067RX  22059.57236019  .00053296  00000+0  49978-3 0  9993
2 46927  51.6380 131.0417 0004053   8.4836 351.6228 15.66648986 74749
UVSQ-SAT                
1 47438U 21006AB  22059.69345559  .00003683  00000+0  20471-3 0  9995
2 47438  97.4532 120.9716 0010922 295.0917  64.9181 15.14267622 60811
SOMP2B                  
1 47445U 21006AJ  22059.73894880  .00003425  00000+0  19178-3 0  9990
2 47445  97.4505 120.7651 0010621 299.7002  60.3172 15.14046096 60817
WARP-01                 
1 47924U 98067SA  22059.61301132  .00092923  00000+0  75625-3 0  9993
2 47924  51.6358 136.5126 0006965 357.4673   2.6288 15.69868615 54720
RSP-01                  
1 47925U 98067SB  22059.67278136  .00056265  00000+0  56903-3 0  9994
2 47925  51.6393 139.2131 0003122 340.5848  19.5028 15.64737600 54672
TAUSAT-1                
1 47926U 98067SC  22059.65101740  .00087713  00000+0  70390-3 0  9997
2 47926  51.6374 135.2855 0004474 343.1475  16.9373 15.70248100 54715
TSURU                   
1 47927U 98067SD  22059.65489649  .00048100  00000+0  52275-3 0  9994
2 47927  51.6383 140.5873 0002738 334.6521  25.4339 15.62974809 54656
STARS-EC                
1 47928U 98067SE  22059.61062767  .00120581  00000+0  87408-3 0  9999
2 47928  51.6369 135.7596 0008086   0.2258 359.8742 15.72501835 54696
MAYA-2                  
1 47929U 98067SF  22059.65117589  .00048642  00000+0  52925-3 0  9990
2 47929  51.6385 140.5612 0002609 332.5300  27.5556 15.62940578 54616
HIROGARI (OPUSAT-II)    
1 47930U 98067SG  22059.80194093  .00129558  00000+0  88922-3 0  9996
2 47930  51.6347 133.2913 0005207 355.5693   4.5259 15.73771742 54764
GUARANISAT-1            
1 47931U 98067SH  22059.64398943  .00048857  00000+0  52945-3 0  9997
2 47931  51.6393 140.5257 0002663 331.5517  28.5332 15.63041740 54653
DIY-1 (ARDUIQUBE)       
1 47963U 21022AH  22059.71903730  .00009014  00000+0  55781-3 0  9996
2 47963  97.5435 322.5881 0019293 141.8713 218.3885 15.09882454 50525
